{
  "type": "FeatureCollection",
  "features": [
    {
      "type": "Feature",
      "properties": {
        "norad_id": 30110,
        "name": "FENGYUN 1C DEB",
        "group": "fengyun-1c-debris",
        "lat": -52.73847055182096,
        "lon": 112.19450889322552,
        "alt_km": 888.443704777249,
        "timestamp": "2025-12-17T23:38:07.127851+00:00",
        "meta_object_name": "FENGYUN 1C DEB",
        "meta_object_id": "1999-025RP",
        "meta_epoch": "2025-12-17T06:10:52.069440",
        "meta_mean_motion": 13.56226465,
        "meta_eccentricity": 0.02674297,
        "meta_inclination": 98.9078,
        "meta_ra_of_asc_node": 99.639,
        "meta_arg_of_pericenter": 341.4232,
        "meta_mean_anomaly": 17.7289,
        "meta_ephemeris_type": 0,
        "meta_classification_type": "U",
        "meta_norad_cat_id": 30110,
        "meta_element_set_no": 999,
        "meta_rev_at_epoch": 93576,
        "meta_bstar": 0.00024140659,
        "meta_mean_motion_dot": 1.74e-06,
        "meta_mean_motion_ddot": 0,
        "tle_line1": "1 30110U 99025RP  25351.25754710  .00000174  00000+0  24141-3 0  9993",
        "tle_line2": "2 30110  98.9078  99.6390 0267429 341.4232  17.7289 13.56226465935767"
      },
      "geometry": {
        "type": "Point",
        "coordinates": [
          112.19450889322552,
          -52.73847055182096
        ]
      }
    },
    {
      "type": "Feature",
      "properties": {
        "norad_id": 30112,
        "name": "FENGYUN 1C DEB",
        "group": "fengyun-1c-debris",
        "lat": -56.96586214777802,
        "lon": -19.22473052349803,
        "alt_km": 951.0165261472202,
        "timestamp": "2025-12-17T23:38:07.127861+00:00",
        "meta_object_name": "FENGYUN 1C DEB",
        "meta_object_id": "1999-025RR",
        "meta_epoch": "2025-12-17T12:05:41.415648",
        "meta_mean_motion": 14.22235723,
        "meta_eccentricity": 0.02018477,
        "meta_inclination": 99.2817,
        "meta_ra_of_asc_node": 325.7033,
        "meta_arg_of_pericenter": 94.1456,
        "meta_mean_anomaly": 268.2816,
        "meta_ephemeris_type": 0,
        "meta_classification_type": "U",
        "meta_norad_cat_id": 30112,
        "meta_element_set_no": 999,
        "meta_rev_at_epoch": 97650,
        "meta_bstar": 0.00046371061,
        "meta_mean_motion_dot": 1.217e-05,
        "meta_mean_motion_ddot": 0,
        "tle_line1": "1 30112U 99025RR  25351.50395157  .00001217  00000+0  46371-3 0  9997",
        "tle_line2": "2 30112  99.2817 325.7033 0201847  94.1456 268.2816 14.22235723976500"
      },
      "geometry": {
        "type": "Point",
        "coordinates": [
          -19.22473052349803,
          -56.96586214777802
        ]
      }
    },
    {
      "type": "Feature",
      "properties": {
        "norad_id": 30113,
        "name": "FENGYUN 1C DEB",
        "group": "fengyun-1c-debris",
        "lat": -75.21532979114805,
        "lon": -12.586077703244214,
        "alt_km": 747.1678542973432,
        "timestamp": "2025-12-17T23:38:07.127872+00:00",
        "meta_object_name": "FENGYUN 1C DEB",
        "meta_object_id": "1999-025RS",
        "meta_epoch": "2025-12-17T12:44:46.199328",
        "meta_mean_motion": 14.45388757,
        "meta_eccentricity": 0.00406141,
        "meta_inclination": 99.0377,
        "meta_ra_of_asc_node": 204.0206,
        "meta_arg_of_pericenter": 348.1179,
        "meta_mean_anomaly": 71.0626,
        "meta_ephemeris_type": 0,
        "meta_classification_type": "U",
        "meta_norad_cat_id": 30113,
        "meta_element_set_no": 999,
        "meta_rev_at_epoch": 97978,
        "meta_bstar": 0.0015031873,
        "meta_mean_motion_dot": 5.294e-05,
        "meta_mean_motion_ddot": 0,
        "tle_line1": "1 30113U 99025RS  25351.53109027  .00005294  00000+0  15032-2 0  9998",
        "tle_line2": "2 30113  99.0377 204.0206 0040614 348.1179  71.0626 14.45388757979781"
      },
      "geometry": {
        "type": "Point",
        "coordinates": [
          -12.586077703244214,
          -75.21532979114805
        ]
      }
    },
    {
      "type": "Feature",
      "properties": {
        "norad_id": 30114,
        "name": "FENGYUN 1C DEB",
        "group": "fengyun-1c-debris",
        "lat": 80.84768675564321,
        "lon": -112.94317260130565,
        "alt_km": 794.8932471182134,
        "timestamp": "2025-12-17T23:38:07.127882+00:00",
        "meta_object_name": "FENGYUN 1C DEB",
        "meta_object_id": "1999-025RT",
        "meta_epoch": "2025-12-17T13:34:49.738080",
        "meta_mean_motion": 14.0965566,
        "meta_eccentricity": 0.0082294,
        "meta_inclination": 98.7468,
        "meta_ra_of_asc_node": 353.7906,
        "meta_arg_of_pericenter": 106.2925,
        "meta_mean_anomaly": 21.6989,
        "meta_ephemeris_type": 0,
        "meta_classification_type": "U",
        "meta_norad_cat_id": 30114,
        "meta_element_set_no": 999,
        "meta_rev_at_epoch": 97222,
        "meta_bstar": 0.00012707314,
        "meta_mean_motion_dot": 1.88e-06,
        "meta_mean_motion_ddot": 0,
        "tle_line1": "1 30114U 99025RT  25351.56585345  .00000188  00000+0  12707-3 0  9997",
        "tle_line2": "2 30114  98.7468 353.7906 0082294 106.2925  21.6989 14.09655660972225"
      },
      "geometry": {
        "type": "Point",
        "coordinates": [
          -112.94317260130565,
          80.84768675564321
        ]
      }
    },
    {
      "type": "Feature",
      "properties": {
        "norad_id": 30115,
        "name": "FENGYUN 1C DEB",
        "group": "fengyun-1c-debris",
        "lat": -6.24871074991998,
        "lon": 20.086613363623577,
        "alt_km": 799.5260638947011,
        "timestamp": "2025-12-17T23:38:07.127893+00:00",
        "meta_object_name": "FENGYUN 1C DEB",
        "meta_object_id": "1999-025RU",
        "meta_epoch": "2025-12-17T15:47:03.634080",
        "meta_mean_motion": 14.19797126,
        "meta_eccentricity": 0.00675589,
        "meta_inclination": 98.622,
        "meta_ra_of_asc_node": 18.8161,
        "meta_arg_of_pericenter": 46.6951,
        "meta_mean_anomaly": 76.6367,
        "meta_ephemeris_type": 0,
        "meta_classification_type": "U",
        "meta_norad_cat_id": 30115,
        "meta_element_set_no": 999,
        "meta_rev_at_epoch": 97398,
        "meta_bstar": 0.00076694467,
        "meta_mean_motion_dot": 1.62e-05,
        "meta_mean_motion_ddot": 0,
        "tle_line1": "1 30115U 99025RU  25351.65768095  .00001620  00000+0  76694-3 0  9990",
        "tle_line2": "2 30115  98.6220  18.8161 0067558  46.6951  76.6367 14.19797126973984"
      },
      "geometry": {
        "type": "Point",
        "coordinates": [
          20.086613363623577,
          -6.24871074991998
        ]
      }
    },
    {
      "type": "Feature",
      "properties": {
        "norad_id": 30116,
        "name": "FENGYUN 1C DEB",
        "group": "fengyun-1c-debris",
        "lat": 76.97030455830215,
        "lon": -70.87565057735536,
        "alt_km": 796.7342593579087,
        "timestamp": "2025-12-17T23:38:07.127903+00:00",
        "meta_object_name": "FENGYUN 1C DEB",
        "meta_object_id": "1999-025RV",
        "meta_epoch": "2025-12-17T05:00:52.211232",
        "meta_mean_motion": 14.29313279,
        "meta_eccentricity": 0.00205725,
        "meta_inclination": 99.398,
        "meta_ra_of_asc_node": 62.5891,
        "meta_arg_of_pericenter": 328.4372,
        "meta_mean_anomaly": 100.4027,
        "meta_ephemeris_type": 0,
        "meta_classification_type": "U",
        "meta_norad_cat_id": 30116,
        "meta_element_set_no": 999,
        "meta_rev_at_epoch": 97573,
        "meta_bstar": 0.0010682937,
        "meta_mean_motion_dot": 2.675e-05,
        "meta_mean_motion_ddot": 0,
        "tle_line1": "1 30116U 99025RV  25351.20893763  .00002675  00000+0  10683-2 0  9999",
        "tle_line2": "2 30116  99.3980  62.5891 0020572 328.4372 100.4027 14.29313279975733"
      },
      "geometry": {
        "type": "Point",
        "coordinates": [
          -70.87565057735536,
          76.97030455830215
        ]
      }
    },
    {
      "type": "Feature",
      "properties": {
        "norad_id": 30117,
        "name": "FENGYUN 1C DEB",
        "group": "fengyun-1c-debris",
        "lat": -36.81077248152987,
        "lon": -13.039108033439728,
        "alt_km": 947.9568785282081,
        "timestamp": "2025-12-17T23:38:07.127913+00:00",
        "meta_object_name": "FENGYUN 1C DEB",
        "meta_object_id": "1999-025RW",
        "meta_epoch": "2025-12-17T14:08:50.150112",
        "meta_mean_motion": 14.07164648,
        "meta_eccentricity": 0.01638425,
        "meta_inclination": 98.8041,
        "meta_ra_of_asc_node": 339.9153,
        "meta_arg_of_pericenter": 195.476,
        "meta_mean_anomaly": 284.2403,
        "meta_ephemeris_type": 0,
        "meta_classification_type": "U",
        "meta_norad_cat_id": 30117,
        "meta_element_set_no": 999,
        "meta_rev_at_epoch": 97057,
        "meta_bstar": 0.00011599997,
        "meta_mean_motion_dot": 1.76e-06,
        "meta_mean_motion_ddot": 0,
        "tle_line1": "1 30117U 99025RW  25351.58946933  .00000176  00000+0  11600-3 0  9994",
        "tle_line2": "2 30117  98.8041 339.9153 0163842 195.4760 284.2403 14.07164648970575"
      },
      "geometry": {
        "type": "Point",
        "coordinates": [
          -13.039108033439728,
          -36.81077248152987
        ]
      }
    }
  ]
}